{"type": "FeatureCollection", "features": [ {"type": "Feature", "properties": {"norad_id": 40315, "name": "COSMOS 2501 (702K)", "group": "gnss", "lat": -13.910184871907736, "lon": -170.30760700740703, "alt_km": 19171.575209870127, "timestamp": "2025-12-14T20:40:32.013991+00:00", "meta": {"OBJECT_NAME": "COSMOS 2501 (702K)", "OBJECT_ID": "2014-075A", "EPOCH": "2025-12-13T22:38:23.178048", "MEAN_MOTION": 2.13101423, "ECCENTRICITY": 0.00201271, "INCLINATION": 63.6139, "RA_OF_ASC_NODE": 196.7834, "ARG_OF_PERICENTER": 204.3197, "MEAN_ANOMALY": 155.6584, "EPHEMERIS_TYPE": 0, "CLASSIFICATION_TYPE": "U", "NORAD_CAT_ID": 40315, "ELEMENT_SET_NO": 999, "REV_AT_EPOCH": 8590, "BSTAR": 0, "MEAN_MOTION_DOT": 9.1e-07, "MEAN_MOTION_DDOT": 0}, "tle": {"line1": "1 40315U 14075A   25347.94332382  .00000091  00000+0  00000+0 0  9993", "line2": "2 40315  63.6139 196.7834 0020127 204.3197 155.6584  2.13101423 85902"}}, "geometry": {"type": "Point", "coordinates": [-170.30760700740703, -13.910184871907736]}}, {"type": "Feature", "properties": {"norad_id": 40534, "name": "GPS BIIF-9  (PRN 26)", "group": "gnss", "lat": -17.336216408726685, "lon": 45.320627142688075, "alt_km": 20457.24385338767, "timestamp": "2025-12-14T20:40:32.014003+00:00", "meta": {"OBJECT_NAME": "GPS BIIF-9  (PRN 26)", "OBJECT_ID": "2015-013A", "EPOCH": "2025-12-13T14:04:23.865312", "MEAN_MOTION": 2.00562579, "ECCENTRICITY": 0.01070971, "INCLINATION": 53.1976, "RA_OF_ASC_NODE": 211.8551, "ARG_OF_PERICENTER": 38.5041, "MEAN_ANOMALY": 322.3346, "EPHEMERIS_TYPE": 0, "CLASSIFICATION_TYPE": "U", "NORAD_CAT_ID": 40534, "ELEMENT_SET_NO": 999, "REV_AT_EPOCH": 7810, "BSTAR": 0, "MEAN_MOTION_DOT": 4.8e-07, "MEAN_MOTION_DDOT": 0}, "tle": {"line1": "1 40534U 15013A   25347.58638733  .00000048  00000+0  00000+0 0  9990", "line2": "2 40534  53.1976 211.8551 0107097  38.5041 322.3346  2.00562579 78102"}}, "geometry": {"type": "Point", "coordinates": [45.320627142688075, -17.336216408726685]}}, {"type": "Feature", "properties": {"norad_id": 40544, "name": "GSAT0203 (GALILEO 7)", "group": "gnss", "lat": -55.354615032312076, "lon": -122.28845285580954, "alt_km": 23209.127678213747, "timestamp": "2025-12-14T20:40:32.014015+00:00", "meta": {"OBJECT_NAME": "GSAT0203 (GALILEO 7)", "OBJECT_ID": "2015-017A", "EPOCH": "2025-12-13T06:22:25.500288", "MEAN_MOTION": 1.70476024, "ECCENTRICITY": 0.00064981, "INCLINATION": 56.8461, "RA_OF_ASC_NODE": 346.6655, "ARG_OF_PERICENTER": 272.4956, "MEAN_ANOMALY": 87.4484, "EPHEMERIS_TYPE": 0, "CLASSIFICATION_TYPE": "U", "NORAD_CAT_ID": 40544, "ELEMENT_SET_NO": 999, "REV_AT_EPOCH": 6603, "BSTAR": 0, "MEAN_MOTION_DOT": -8.7e-07, "MEAN_MOTION_DDOT": 0}, "tle": {"line1": "1 40544U 15017A   25347.26557292 -.00000087  00000+0  00000+0 0  9994", "line2": "2 40544  56.8461 346.6655 0006498 272.4956  87.4484  1.70476024 66037"}}, "geometry": {"type": "Point", "coordinates": [-122.28845285580954, -55.354615032312076]}}, {"type": "Feature", "properties": {"norad_id": 40545, "name": "GSAT0204 (GALILEO 8)", "group": "gnss", "lat": 54.78100462774611, "lon": 98.84416571207773, "alt_km": 23233.14693206934, "timestamp": "2025-12-14T20:40:32.014026+00:00", "meta": {"OBJECT_NAME": "GSAT0204 (GALILEO 8)", "OBJECT_ID": "2015-017B", "EPOCH": "2025-12-13T12:30:18.591264", "MEAN_MOTION": 1.70475656, "ECCENTRICITY": 0.00062134, "INCLINATION": 56.8526, "RA_OF_ASC_NODE": 346.6763, "ARG_OF_PERICENTER": 263.8119, "MEAN_ANOMALY": 96.1359, "EPHEMERIS_TYPE": 0, "CLASSIFICATION_TYPE": "U", "NORAD_CAT_ID": 40545, "ELEMENT_SET_NO": 999, "REV_AT_EPOCH": 2908, "BSTAR": 0, "MEAN_MOTION_DOT": -8.6e-07, "MEAN_MOTION_DDOT": 0}, "tle": {"line1": "1 40545U 15017B   25347.52104851 -.00000086  00000+0  00000+0 0  9992", "line2": "2 40545  56.8526 346.6763 0006213 263.8119  96.1359  1.70475656 29082"}}, "geometry": {"type": "Point", "coordinates": [98.84416571207773, 54.78100462774611]}}, {"type": "Feature", "properties": {"norad_id": 40549, "name": "BEIDOU-3S IGSO-1S (C31)", "group": "gnss", "lat": -7.916645011805717, "lon": 124.4500519804594, "alt_km": 35626.99196718908, "timestamp": "2025-12-14T20:40:32.014038+00:00", "meta": {"OBJECT_NAME": "BEIDOU-3S IGSO-1S (C31)", "OBJECT_ID": "2015-019A", "EPOCH": "2025-12-11T20:45:03.352032", "MEAN_MOTION": 1.00292963, "ECCENTRICITY": 0.0036964, "INCLINATION": 49.5542, "RA_OF_ASC_NODE": 297.7211, "ARG_OF_PERICENTER": 195.3449, "MEAN_ANOMALY": 352.9961, "EPHEMERIS_TYPE": 0, "CLASSIFICATION_TYPE": "U", "NORAD_CAT_ID": 40549, "ELEMENT_SET_NO": 999, "REV_AT_EPOCH": 3919, "BSTAR": 0, "MEAN_MOTION_DOT": -1.91e-06, "MEAN_MOTION_DDOT": 0}, "tle": {"line1": "1 40549U 15019A   25345.86462213 -.00000191  00000+0  00000+0 0  9999", "line2": "2 40549  49.5542 297.7211 0036964 195.3449 352.9961  1.00292963 39194"}}, "geometry": {"type": "Point", "coordinates": [124.4500519804594, -7.916645011805717]}}, {"type": "Feature", "properties": {"norad_id": 40730, "name": "GPS BIIF-10 (PRN 08)", "group": "gnss", "lat": 53.94638652647755, "lon": -2.2873785946888723, "alt_km": 20022.03541716213, "timestamp": "2025-12-14T20:40:32.014050+00:00", "meta": {"OBJECT_NAME": "GPS BIIF-10 (PRN 08)", "OBJECT_ID": "2015-033A", "EPOCH": "2025-12-13T17:56:39.615936", "MEAN_MOTION": 2.00565613, "ECCENTRICITY": 0.0111033, "INCLINATION": 54.1297, "RA_OF_ASC_NODE": 274.7313, "ARG_OF_PERICENTER": 26.8305, "MEAN_ANOMALY": 333.7529, "EPHEMERIS_TYPE": 0, "CLASSIFICATION_TYPE": "U", "NORAD_CAT_ID": 40730, "ELEMENT_SET_NO": 999, "REV_AT_EPOCH": 7627, "BSTAR": 0, "MEAN_MOTION_DOT": -7.4e-07, "MEAN_MOTION_DDOT": 0}, "tle": {"line1": "1 40730U 15033A   25347.74768074 -.00000074  00000+0  00000+0 0  9990", "line2": "2 40730  54.1297 274.7313 0111033  26.8305 333.7529  2.00565613 76276"}}, "geometry": {"type": "Point", "coordinates": [-2.2873785946888723, 53.94638652647755]}}, {"type": "Feature", "properties": {"norad_id": 40748, "name": "BEIDOU-3S M2S (C58)", "group": "gnss", "lat": 10.69549817628501, "lon": 120.78166286293046, "alt_km": 21533.70306535129, "timestamp": "2025-12-14T20:40:32.014061+00:00", "meta": {"OBJECT_NAME": "BEIDOU-3S M2S (C58)", "OBJECT_ID": "2015-037A", "EPOCH": "2025-12-11T22:15:26.437248", "MEAN_MOTION": 1.8622897, "ECCENTRICITY": 0.00123447, "INCLINATION": 55.0397, "RA_OF_ASC_NODE": 308.4912, "ARG_OF_PERICENTER": 267.8245, "MEAN_ANOMALY": 92.025, "EPHEMERIS_TYPE": 0, "CLASSIFICATION_TYPE": "U", "NORAD_CAT_ID": 40748, "ELEMENT_SET_NO": 999, "REV_AT_EPOCH": 7063, "BSTAR": 0, "MEAN_MOTION_DOT": -8.9e-07, "MEAN_MOTION_DDOT": 0}, "tle": {"line1": "1 40748U 15037A   25345.92738932 -.00000089  00000+0  00000+0 0  9997", "line2": "2 40748  55.0397 308.4912 0012344 267.8245  92.0250  1.86228970 70636"}}, "geometry": {"type": "Point", "coordinates": [120.78166286293046, 10.69549817628501]}}, {"type": "Feature", "properties": {"norad_id": 40749, "name": "BEIDOU-3S M1S (C57)", "group": "gnss", "lat": 10.636932123072626, "lon": -44.09211177971155, "alt_km": 21515.364189312495, "timestamp": "2025-12-14T20:40:32.014072+00:00", "meta": {"OBJECT_NAME": "BEIDOU-3S M1S (C57)", "OBJECT_ID": "2015-037B", "EPOCH": "2025-12-11T14:53:54.000096", "MEAN_MOTION": 1.86253918, "ECCENTRICITY": 0.00034406, "INCLINATION": 55.0364, "RA_OF_ASC_NODE": 308.4915, "ARG_OF_PERICENTER": 358.1692, "MEAN_ANOMALY": 1.8205, "EPHEMERIS_TYPE": 0, "CLASSIFICATION_TYPE": "U", "NORAD_CAT_ID": 40749, "ELEMENT_SET_NO": 999, "REV_AT_EPOCH": 7063, "BSTAR": 0, "MEAN_MOTION_DOT": -8.8e-07, "MEAN_MOTION_DDOT": 0}, "tle": {"line1": "1 40749U 15037B   25345.62076389 -.00000088  00000+0  00000+0 0  9995", "line2": "2 40749  55.0364 308.4915 0003440 358.1692   1.8205  1.86253918 70639"}}, "geometry": {"type": "Point", "coordinates": [-44.09211177971155, 10.636932123072626]}}, {"type": "Feature", "properties": {"norad_id": 40889, "name": "GSAT0205 (GALILEO 9)", "group": "gnss", "lat": -47.824968147656996, "lon": 97.29091141297289, "alt_km": 23243.860754466445, "timestamp": "2025-12-14T20:40:32.014083+00:00", "meta": {"OBJECT_NAME": "GSAT0205 (GALILEO 9)", "OBJECT_ID": "2015-045A", "EPOCH": "2025-12-13T06:56:57.536448", "MEAN_MOTION": 1.70473165, "ECCENTRICITY": 0.00060191, "INCLINATION": 55.0031, "RA_OF_ASC_NODE": 226.743, "ARG_OF_PERICENTER": 39.8542, "MEAN_ANOMALY": 320.2702, "EPHEMERIS_TYPE": 0, "CLASSIFICATION_TYPE": "U", "NORAD_CAT_ID": 40889, "ELEMENT_SET_NO": 999, "REV_AT_EPOCH": 6384, "BSTAR": 0, "MEAN_MOTION_DOT": 2.2e-07, "MEAN_MOTION_DDOT": 0}, "tle": {"line1": "1 40889U 15045A   25347.28955482  .00000022  00000+0  00000+0 0  9990", "line2": "2 40889  55.0031 226.7430 0006019  39.8542 320.2702  1.70473165 63847"}}, "geometry": {"type": "Point", "coordinates": [97.29091141297289, -47.824968147656996]}}, {"type": "Feature", "properties": {"norad_id": 40890, "name": "GSAT0206 (GALILEO 10)", "group": "gnss", "lat": 50.59994830774762, "lon": -11.738206181051426, "alt_km": 23212.884754734136, "timestamp": "2025-12-14T20:40:32.014095+00:00", "meta": {"OBJECT_NAME": "GSAT0206 (GALILEO 10)", "OBJECT_ID": "2015-045B", "EPOCH": "2025-12-11T03:55:56.933760", "MEAN_MOTION": 1.70473071, "ECCENTRICITY": 0.00038554, "INCLINATION": 55.0029, "RA_OF_ASC_NODE": 226.7968, "ARG_OF_PERICENTER": 36.8797, "MEAN_ANOMALY": 323.2259, "EPHEMERIS_TYPE": 0, "CLASSIFICATION_TYPE": "U", "NORAD_CAT_ID": 40890, "ELEMENT_SET_NO": 999, "REV_AT_EPOCH": 6383, "BSTAR": 0, "MEAN_MOTION_DOT": 9e-08, "MEAN_MOTION_DDOT": 0}, "tle": {"line1": "1 40890U 15045B   25345.16385340  .00000009  00000+0  00000+0 0  9992", "line2": "2 40890  55.0029 226.7968 0003855  36.8797 323.2259  1.70473071 63831"}}, "geometry": {"type": "Point", "coordinates": [-11.738206181051426, 50.59994830774762]}}]}